[
    {
        "Altitude(m)": 610405.3446475021,
        "Argument of Periapsis(deg)": 0.0,
        "Eccentricity": 0.0,
        "Inclination(deg)": 60.0,
        "Latitude(deg)": 52.11133120813691,
        "Longitude(deg)": 127.4774963465064,
        "Mean Anomaly(deg)": 114.5455,
        "RAAN(deg)": 95.0,
        "Satellite Name": "Test1 425",
        "Satellite Number": 425,
        "Semi-Major Axis(m)": 6980739.136638005,
        "Time(s)": 0
    },
    {
        "Altitude(m)": 610321.9173925533,
        "Argument of Periapsis(deg)": 0.00010418945913296404,
        "Eccentricity": 0.0,
        "Inclination(deg)": 60.0,
        "Latitude(deg)": 51.74604536078354,
        "Longitude(deg)": 128.24639015351093,
        "Mean Anomaly(deg)": 115.16560614546184,
        "RAAN(deg)": 94.99957995086027,
        "Satellite Name": "Test1 425",
        "Satellite Number": 425,
        "Semi-Major Axis(m)": 6980739.136638005,
        "Time(s)": 10
    }
]